NIMIQ 2                 
1 27632U 02062A   26195.67993919 -.00000082  00000+0  00000+0 0  9995
2 27632   9.5077  56.6044 0005262  54.2637 317.2352  1.00270518 44462
ANIK F2                 
1 28378U 04027A   26195.60832677 -.00000060  00000+0  00000+0 0  9998
2 28378   3.3563  79.0804 0003565  31.8813 289.3748  1.00271392 41530
ANIK F1R                
1 28868U 05036A   26195.95864208 -.00000087  00000+0  00000+0 0  9995
2 28868   4.3816  76.2327 0003834  17.5564  76.8212  1.00271336 46738
ANIK F3                 
1 31102U 07009A   26195.74901303 -.00000010  00000+0  00000+0 0  9993
2 31102   1.2667  83.5195 0002426  29.0299 330.9741  1.00270976 46837
NIMIQ 4                 
1 33373U 08044A   26195.82778433  .00000000  00000+0  00000+0 0  9998
2 33373   0.0426  73.3796 0001912  44.2871  31.0535  1.00267784 65268
TELSTAR 11N             
1 34111U 09009A   26195.76547977 -.00000259  00000+0  00000+0 0  9998
2 34111   0.0394 259.7018 0002293 210.1451  60.7721  1.00269088 46524
TERRESTAR-1             
1 35496U 09035A   26194.52058797 -.00000064  00000+0  00000+0 0  9998
2 35496   5.1989  48.7738 0002618  55.2029 263.8324  1.00270674 62393
NIMIQ 5                 
1 35873U 09050A   26195.92438907 -.00000266  00000+0  00000+0 0  9998
2 35873   0.0480 240.8803 0002537 228.2212  83.7521  1.00270847 61621
SKYTERRA 1              
1 37218U 10061A   26195.68149920 -.00000129  00000+0  00000+0 0  9992
2 37218   5.1816  50.8079 0002533  24.8369   0.9060  1.00270230 57471
TELSTAR 14R             
1 37602U 11021A   26195.54654036 -.00000288  00000+0  00000+0 0  9996
2 37602   0.0856  84.9749 0001600   1.1935 339.9946  1.00270342 56100
NIMIQ 6                 
1 38342U 12026A   26195.54099367 -.00000181  00000+0  00000+0 0  9996
2 38342   0.0737 265.9014 0002610 214.2252 275.9306  1.00271248 50689
ANIK G1                 
1 39127U 13014A   26195.68037253 -.00000082  00000+0  00000+0 0  9997
2 39127   0.0463 249.4083 0001636 235.8278 304.9266  1.00271318 48520
TELSTAR 12V             
1 41036U 15068A   26195.86433597 -.00000128  00000+0  00000+0 0  9992
2 41036   0.0031 117.3123 0002083 352.9823 118.5833  1.00270992 38902
VIASAT-2                
1 42740U 17029A   26195.75897975 -.00000274  00000+0  00000+0 0  9998
2 42740   0.0191 309.4096 0000224 296.0516 250.5017  1.00270402 33482
LEO 1 (LEO VANTAGE 1)   
1 43113U 18004C   26195.85581664  .00002495  00000+0  17625-3 0  9994
2 43113  99.2418 117.7597 0349390 354.7165   5.0387 14.68023498441549
TELSTAR 19V             
1 43562U 18059A   26195.76045308 -.00000288  00000+0  00000+0 0  9996
2 43562   0.0283 145.1875 0002641 341.1065  17.0859  1.00272438 29423
TELSTAR 18V             
1 43611U 18069A   26194.52037462 -.00000298  00000+0  00000+0 0  9998
2 43611   0.0151 318.0250 0001663 158.6111 140.0899  1.00269998 28906
AMOS-17                 
1 44479U 19050A   26195.83564006  .00000101  00000+0  00000+0 0  9998
2 44479   0.0160  21.0743 0001314  98.9788 130.4621  1.00273499 25461
